[{"OBJECT_NAME":"STARLINK-34030","OBJECT_ID":"2025-102J","EPOCH":"2026-03-09T12:34:44.374944","MEAN_MOTION":14.98340563,"ECCENTRICITY":0.00027985,"INCLINATION":70.0016,"RA_OF_ASC_NODE":115.0253,"ARG_OF_PERICENTER":258.7362,"MEAN_ANOMALY":101.3483,"EPHEMERIS_TYPE":0,"CLASSIFICATION_TYPE":"U","NORAD_CAT_ID":64030,"ELEMENT_SET_NO":999,"REV_AT_EPOCH":4593,"BSTAR":0.00033280714,"MEAN_MOTION_DOT":3.881e-5,"MEAN_MOTION_DDOT":0},{"OBJECT_NAME":"CZ-6A DEB","OBJECT_ID":"2024-140UU","EPOCH":"2026-03-09T14:59:25.616256","MEAN_MOTION":14.76478592,"ECCENTRICITY":0.0108839,"INCLINATION":89.1464,"RA_OF_ASC_NODE":292.2182,"ARG_OF_PERICENTER":203.0446,"MEAN_ANOMALY":156.5875,"EPHEMERIS_TYPE":0,"CLASSIFICATION_TYPE":"U","NORAD_CAT_ID":61331,"ELEMENT_SET_NO":999,"REV_AT_EPOCH":8105,"BSTAR":0.0015527,"MEAN_MOTION_DOT":0.00011943,"MEAN_MOTION_DDOT":0}]
